$$SOE
2460154.500000000, A.D. 2023-Jul-29 00:00:00.0000, -6.845625131719968E+08, -2.335500626018246E+08, 2.498861403977948E+07,
2460161.500000000, A.D. 2023-Aug-05 00:00:00.0000, -6.823307218459234E+08, -2.404186627675654E+08, 2.460285968975848E+07,
2460168.500000000, A.D. 2023-Aug-12 00:00:00.0000, -6.800116652276405E+08, -2.472565114866898E+08, 2.421395825856066E+07,
2460175.500000000, A.D. 2023-Aug-19 00:00:00.0000, -6.776056811598084E+08, -2.540627499841147E+08, 2.382196103396045E+07,
2460182.500000000, A.D. 2023-Aug-26 00:00:00.0000, -6.751131106992009E+08, -2.608365219601680E+08, 2.342691937324870E+07,
2460189.500000000, A.D. 2023-Sep-02 00:00:00.0000, -6.725342981714014E+08, -2.675769734600700E+08, 2.302888471072397E+07,
2460196.500000000, A.D. 2023-Sep-09 00:00:00.0000, -6.698695912148637E+08, -2.742832528571235E+08, 2.262790855392568E+07,
2460203.500000000, A.D. 2023-Sep-16 00:00:00.0000, -6.671193406458758E+08, -2.809545110075976E+08, 2.222404244847612E+07,
2460210.500000000, A.D. 2023-Sep-23 00:00:00.0000, -6.642838997279721E+08, -2.875899012904786E+08, 2.181733789684515E+07,
2460217.500000000, A.D. 2023-Sep-30 00:00:00.0000, -6.613636231852236E+08, -2.941885783413168E+08, 2.140784635958709E+07,
2460224.500000000, A.D. 2023-Oct-07 00:00:00.0000, -6.583588683129957E+08, -3.007496960230589E+08, 2.099561951069638E+07,
2460231.500000000, A.D. 2023-Oct-14 00:00:00.0000, -6.552699971464132E+08, -3.072724079472476E+08, 2.058070938109408E+07,
2460238.500000000, A.D. 2023-Oct-21 00:00:00.0000, -6.520973764582214E+08, -3.137558689428784E+08, 2.016316822529252E+07,
2460245.500000000, A.D. 2023-Oct-28 00:00:00.0000, -6.488413770103496E+08, -3.201992352125797E+08, 1.974304842683674E+07,
2460252.500000000, A.D. 2023-Nov-04 00:00:00.0000, -6.455023733089912E+08, -3.266016639464447E+08, 1.932040249446768E+07,
2460259.500000000, A.D. 2023-Nov-11 00:00:00.0000, -6.420807436855592E+08, -3.329623129935060E+08, 1.889528308394654E+07,
2460266.500000000, A.D. 2023-Nov-18 00:00:00.0000, -6.385768704841046E+08, -3.392803406552860E+08, 1.846774302039850E+07,
2460273.500000000, A.D. 2023-Nov-25 00:00:00.0000, -6.349911402824913E+08, -3.455549055789360E+08, 1.803783531656779E+07,
2460280.500000000, A.D. 2023-Dec-02 00:00:00.0000, -6.313239441192555E+08, -3.517851667611912E+08, 1.760561318366711E+07,
2460287.500000000, A.D. 2023-Dec-09 00:00:00.0000, -6.275756776484160E+08, -3.579702837220767E+08, 1.717113002298644E+07,
2460294.500000000, A.D. 2023-Dec-16 00:00:00.0000, -6.237467409347873E+08, -3.641094168357973E+08, 1.673443937295875E+07,
2460301.500000000, A.D. 2023-Dec-23 00:00:00.0000, -6.198375375414029E+08, -3.702017271313206E+08, 1.629559483586340E+07,
2460308.500000000, A.D. 2023-Dec-30 00:00:00.0000, -6.158484742492152E+08, -3.762463745132994E+08, 1.585465019272943E+07,
2460315.500000000, A.D. 2024-Jan-06 00:00:00.0000, -6.117799631814678E+08, -3.822425167640730E+08, 1.541165967590338E+07,
2460322.500000000, A.D. 2024-Jan-13 00:00:00.0000, -6.076324231601851E+08, -3.881893111337488E+08, 1.496667796037711E+07,
2460329.500000000, A.D. 2024-Jan-20 00:00:00.0000, -6.034062790713574E+08, -3.940859154335999E+08, 1.451976001350182E+07,
2460336.500000000, A.D. 2024-Jan-27 00:00:00.0000, -5.991019612672794E+08, -3.999314879802918E+08, 1.407096104223146E+07,
2460343.500000000, A.D. 2024-Feb-03 00:00:00.0000, -5.947199054340477E+08, -4.057251873395486E+08, 1.362033649941736E+07,
2460350.500000000, A.D. 2024-Feb-10 00:00:00.0000, -5.902605526466994E+08, -4.114661721606227E+08, 1.316794209968954E+07,
2460357.500000000, A.D. 2024-Feb-17 00:00:00.0000, -5.857243494733946E+08, -4.171536010939706E+08, 1.271383383266246E+07,
2460364.500000000, A.D. 2024-Feb-24 00:00:00.0000, -5.811117480929693E+08, -4.227866327776058E+08, 1.225806797123286E+07,
2460371.500000000, A.D. 2024-Mar-02 00:00:00.0000, -5.764232063968166E+08, -4.283644259247839E+08, 1.180070106951904E+07,
2460378.500000000, A.D. 2024-Mar-09 00:00:00.0000, -5.716591879365556E+08, -4.338861395759109E+08, 1.134178993250224E+07,
2460385.500000000, A.D. 2024-Mar-16 00:00:00.0000, -5.668201613223642E+08, -4.393509333173568E+08, 1.088139153718925E+07,
2460392.500000000, A.D. 2024-Mar-23 00:00:00.0000, -5.619065991756104E+08, -4.447579663579976E+08, 1.041956300539967E+07,
2460399.500000000, A.D. 2024-Mar-30 00:00:00.0000, -5.569189788768011E+08, -4.501063954901569E+08, 9.956361831529200E+06,
2460406.500000000, A.D. 2024-Apr-06 00:00:00.0000, -5.518577848527712E+08, -4.553953753026943E+08, 9.491846066567212E+06,
2460413.500000000, A.D. 2024-Apr-13 00:00:00.0000, -5.467235088522357E+08, -4.606240598099930E+08, 9.026074201006562E+06,
2460420.500000000, A.D. 2024-Apr-20 00:00:00.0000, -5.415166491620119E+08, -4.657916028200569E+08, 8.559105052758992E+06,
2460427.500000000, A.D. 2024-Apr-27 00:00:00.0000, -5.362377102807978E+08, -4.708971576028887E+08, 8.090997753385484E+06,
2460434.500000000, A.D. 2024-May-04 00:00:00.0000, -5.308872029624068E+08, -4.759398765624014E+08, 7.621811767149061E+06,
2460441.500000000, A.D. 2024-May-11 00:00:00.0000, -5.254656443900177E+08, -4.809189110135880E+08, 7.151606912798345E+06,
2460448.500000000, A.D. 2024-May-18 00:00:00.0000, -5.199735583994628E+08, -4.858334110432130E+08, 6.680443382461876E+06,
2460455.500000000, A.D. 2024-May-25 00:00:00.0000, -5.144114757269033E+08, -4.906825254609870E+08, 6.208381754986852E+06,
2460462.500000000, A.D. 2024-Jun-01 00:00:00.0000, -5.087799342211353E+08, -4.954654018984648E+08, 5.735482993763685E+06,
2460469.500000000, A.D. 2024-Jun-08 00:00:00.0000, -5.030794787742835E+08, -5.001811870784428E+08, 5.261808404818147E+06,
2460476.500000000, A.D. 2024-Jun-15 00:00:00.0000, -4.973106605714817E+08, -5.048290267095882E+08, 4.787419563345939E+06,
2460483.500000000, A.D. 2024-Jun-22 00:00:00.0000, -4.914740366648009E+08, -5.094080638309177E+08, 4.312378397200018E+06,
2460490.500000000, A.D. 2024-Jun-29 00:00:00.0000, -4.855701719929724E+08, -5.139174374268180E+08, 3.836747473377436E+06,
2460497.500000000, A.D. 2024-Jul-06 00:00:00.0000, -4.795996412020192E+08, -5.183562837839242E+08, 3.360590043150514E+06,
2460504.500000000, A.D. 2024-Jul-13 00:00:00.0000, -4.735630283179123E+08, -5.227237377659621E+08, 2.883969898013443E+06,
2460511.500000000, A.D. 2024-Jul-20 00:00:00.0000, -4.674609262571265E+08, -5.270189328577910E+08, 2.406951312555790E+06,
2460518.500000000, A.D. 2024-Jul-27 00:00:00.0000, -4.612939368310952E+08, -5.312410009380164E+08, 1.929599056037456E+06,
2460525.500000000, A.D. 2024-Aug-03 00:00:00.0000, -4.550626709716147E+08, -5.353890721551257E+08, 1.451978416907668E+06,
2460532.500000000, A.D. 2024-Aug-10 00:00:00.0000, -4.487677490114954E+08, -5.394622749116257E+08, 9.741552245438099E+05,
2460539.500000000, A.D. 2024-Aug-17 00:00:00.0000, -4.424098009732950E+08, -5.434597359343944E+08, 4.961958654422164E+05,
2460546.500000000, A.D. 2024-Aug-24 00:00:00.0000, -4.359894668385206E+08, -5.473805804533083E+08, 1.816728925445676E+04,
2460553.500000000, A.D. 2024-Aug-31 00:00:00.0000, -4.295073966818879E+08, -5.512239325493176E+08, -4.598630112086535E+05,
2460560.500000000, A.D. 2024-Sep-07 00:00:00.0000, -4.229642503052796E+08, -5.549889155451999E+08, -9.378270694500506E+05,
2460567.500000000, A.D. 2024-Sep-14 00:00:00.0000, -4.163606962861784E+08, -5.586746514426577E+08, -1.415656490899056E+06,
2460574.500000000, A.D. 2024-Sep-21 00:00:00.0000, -4.096974124691719E+08, -5.622802589927366E+08, -1.893282255075902E+06,
2460581.500000000, A.D. 2024-Sep-28 00:00:00.0000, -4.029750883876495E+08, -5.658048536271259E+08, -2.370634493567288E+06,
2460588.500000000, A.D. 2024-Oct-05 00:00:00.0000, -3.961944259459352E+08, -5.692475492491071E+08, -2.847642580441564E+06,
2460595.500000000, A.D. 2024-Oct-12 00:00:00.0000, -3.893561387227386E+08, -5.726074589044464E+08, -3.324235258582860E+06,
2460602.500000000, A.D. 2024-Oct-19 00:00:00.0000, -3.824609516470908E+08, -5.758836946031787E+08, -3.800340663525581E+06,
2460609.500000000, A.D. 2024-Oct-26 00:00:00.0000, -3.755096010792693E+08, -5.790753670936929E+08, -4.275886307335973E+06,
2460616.500000000, A.D. 2024-Nov-02 00:00:00.0000, -3.685028350394216E+08, -5.821815857374824E+08, -4.750799058274329E+06,
2460623.500000000, A.D. 2024-Nov-09 00:00:00.0000, -3.614414134872944E+08, -5.852014584638263E+08, -5.225005123387635E+06,
2460630.500000000, A.D. 2024-Nov-16 00:00:00.0000, -3.543261086271556E+08, -5.881340918040892E+08, -5.698430036343843E+06,
2460637.500000000, A.D. 2024-Nov-23 00:00:00.0000, -3.471577051909695E+08, -5.909785910554849E+08, -6.170998658826381E+06,
2460644.500000000, A.D. 2024-Nov-30 00:00:00.0000, -3.399370004915268E+08, -5.937340606169102E+08, -6.642635217992544E+06,
2460651.500000000, A.D. 2024-Dec-07 00:00:00.0000, -3.326648038260961E+08, -5.963996040761980E+08, -7.113263383988261E+06,
2460658.500000000, A.D. 2024-Dec-14 00:00:00.0000, -3.253419359192014E+08, -5.989743228247313E+08, -7.582806224204540E+06,
2460665.500000000, A.D. 2024-Dec-21 00:00:00.0000, -3.179692307228950E+08, -6.014573144400704E+08, -8.051185922870517E+06,
2460672.500000000, A.D. 2024-Dec-28 00:00:00.0000, -3.105475376018359E+08, -6.038476738041697E+08, -8.518323689258069E+06,
2460679.500000000, A.D. 2025-Jan-04 00:00:00.0000, -3.030777213060153E+08, -6.061444945815554E+08, -8.984139898344457E+06,
2460686.500000000, A.D. 2025-Jan-11 00:00:00.0000, -2.955606615525590E+08, -6.083468693979567E+08, -9.448554161001861E+06,
2460693.500000000, A.D. 2025-Jan-18 00:00:00.0000, -2.879972531335151E+08, -6.104538896383249E+08, -9.911485314434856E+06,
2460700.500000000, A.D. 2025-Jan-25 00:00:00.0000, -2.803884063059809E+08, -6.124646453389460E+08, -1.037285139372948E+07,
2460707.500000000, A.D. 2025-Feb-01 00:00:00.0000, -2.727350472748706E+08, -6.143782252040609E+08, -1.083256960411045E+07,
2460714.500000000, A.D. 2025-Feb-08 00:00:00.0000, -2.650381187097451E+08, -6.161937167277306E+08, -1.129055629744083E+07,
$$EOE